{
  "type": "FeatureCollection",
  "features": [
    {
      "type": "Feature",
      "properties": {
        "norad_id": 66546,
        "name": "SHIJIAN-30B",
        "group": "last-30-days",
        "lat": 15.477416064702075,
        "lon": 131.09192799443846,
        "alt_km": 524.5659985500424,
        "timestamp": "2025-12-14T16:47:39.436568+00:00",
        "meta_object_name": "SHIJIAN-30B",
        "meta_object_id": "2025-266B",
        "meta_epoch": "2025-12-13T22:40:55.113312",
        "meta_mean_motion": 15.15454556,
        "meta_eccentricity": 0.00105767,
        "meta_inclination": 51.7963,
        "meta_ra_of_asc_node": 327.2247,
        "meta_arg_of_pericenter": 4.17,
        "meta_mean_anomaly": 355.9363,
        "meta_ephemeris_type": 0,
        "meta_classification_type": "U",
        "meta_norad_cat_id": 66546,
        "meta_element_set_no": 999,
        "meta_rev_at_epoch": 376,
        "meta_bstar": 0.00080021601,
        "meta_mean_motion_dot": 0.00015067,
        "meta_mean_motion_ddot": 0,
        "tle_line1": "1 66546U 25266B   25347.94508233  .00015067  00000+0  80022-3 0  9996",
        "tle_line2": "2 66546  51.7963 327.2247 0010576   4.1700 355.9363 15.15454556  3769"
      },
      "geometry": {
        "type": "Point",
        "coordinates": [
          131.09192799443846,
          15.477416064702075
        ]
      }
    },
    {
      "type": "Feature",
      "properties": {
        "norad_id": 66547,
        "name": "SHIJIAN-30C",
        "group": "last-30-days",
        "lat": 17.463356370456236,
        "lon": 129.3504044270103,
        "alt_km": 525.2693242167215,
        "timestamp": "2025-12-14T16:47:39.436579+00:00",
        "meta_object_name": "SHIJIAN-30C",
        "meta_object_id": "2025-266C",
        "meta_epoch": "2025-12-13T22:41:33.609696",
        "meta_mean_motion": 15.15405156,
        "meta_eccentricity": 0.00114386,
        "meta_inclination": 51.7973,
        "meta_ra_of_asc_node": 327.2294,
        "meta_arg_of_pericenter": 355.8027,
        "meta_mean_anomaly": 4.2851,
        "meta_ephemeris_type": 0,
        "meta_classification_type": "U",
        "meta_norad_cat_id": 66547,
        "meta_element_set_no": 999,
        "meta_rev_at_epoch": 376,
        "meta_bstar": 0.00069437085,
        "meta_mean_motion_dot": 0.00013013,
        "meta_mean_motion_ddot": 0,
        "tle_line1": "1 66547U 25266C   25347.94552789  .00013013  00000+0  69437-3 0  9998",
        "tle_line2": "2 66547  51.7973 327.2294 0011438 355.8027   4.2851 15.15405156  3767"
      },
      "geometry": {
        "type": "Point",
        "coordinates": [
          129.3504044270103,
          17.463356370456236
        ]
      }
    },
    {
      "type": "Feature",
      "properties": {
        "norad_id": 66548,
        "name": "CZ-2C R/B",
        "group": "last-30-days",
        "lat": 33.431306403318274,
        "lon": -7.05404744069545,
        "alt_km": 511.4556069313812,
        "timestamp": "2025-12-14T16:47:39.436589+00:00",
        "meta_object_name": "CZ-2C R/B",
        "meta_object_id": "2025-266D",
        "meta_epoch": "2025-12-13T15:31:11.830080",
        "meta_mean_motion": 15.30203489,
        "meta_eccentricity": 0.00838681,
        "meta_inclination": 52.0545,
        "meta_ra_of_asc_node": 326.9594,
        "meta_arg_of_pericenter": 176.1429,
        "meta_mean_anomaly": 184.0222,
        "meta_ephemeris_type": 0,
        "meta_classification_type": "U",
        "meta_norad_cat_id": 66548,
        "meta_element_set_no": 999,
        "meta_rev_at_epoch": 375,
        "meta_bstar": 0.00040296409,
        "meta_mean_motion_dot": 0.00012924,
        "meta_mean_motion_ddot": 0,
        "tle_line1": "1 66548U 25266D   25347.64666470  .00012924  00000+0  40296-3 0  9991",
        "tle_line2": "2 66548  52.0545 326.9594 0083868 176.1429 184.0222 15.30203489  3752"
      },
      "geometry": {
        "type": "Point",
        "coordinates": [
          -7.05404744069545,
          33.431306403318274
        ]
      }
    },
    {
      "type": "Feature",
      "properties": {
        "norad_id": 66549,
        "name": "SHIJIAN-28",
        "group": "last-30-days",
        "lat": 0.23854781726747637,
        "lon": 92.38295102505938,
        "alt_km": 35783.603477047305,
        "timestamp": "2025-12-14T16:47:39.436602+00:00",
        "meta_object_name": "SHIJIAN-28",
        "meta_object_id": "2025-277A",
        "meta_epoch": "2025-12-14T00:17:41.174304",
        "meta_mean_motion": 1.00271842,
        "meta_eccentricity": 8.454e-05,
        "meta_inclination": 5.0152,
        "meta_ra_of_asc_node": 274.9364,
        "meta_arg_of_pericenter": 132.6945,
        "meta_mean_anomaly": 156.5843,
        "meta_ephemeris_type": 0,
        "meta_classification_type": "U",
        "meta_norad_cat_id": 66549,
        "meta_element_set_no": 999,
        "meta_rev_at_epoch": 29,
        "meta_bstar": 0,
        "meta_mean_motion_dot": -3.42e-06,
        "meta_mean_motion_ddot": 0,
        "tle_line1": "1 66549U 25277A   25348.01228211 -.00000342  00000+0  00000+0 0  9990",
        "tle_line2": "2 66549   5.0152 274.9364 0000845 132.6945 156.5843  1.00271842   295"
      },
      "geometry": {
        "type": "Point",
        "coordinates": [
          92.38295102505938,
          0.23854781726747637
        ]
      }
    },
    {
      "type": "Feature",
      "properties": {
        "norad_id": 66550,
        "name": "CZ-7A R/B",
        "group": "last-30-days",
        "lat": -14.390752252459636,
        "lon": -178.39661253570839,
        "alt_km": 3655.1046869063475,
        "timestamp": "2025-12-14T16:47:39.436614+00:00",
        "meta_object_name": "CZ-7A R/B",
        "meta_object_id": "2025-277B",
        "meta_epoch": "2025-12-12T23:59:46.063680",
        "meta_mean_motion": 2.69999213,
        "meta_eccentricity": 0.70164962,
        "meta_inclination": 14.3833,
        "meta_ra_of_asc_node": 269.7494,
        "meta_arg_of_pericenter": 189.2871,
        "meta_mean_anomaly": 143.2042,
        "meta_ephemeris_type": 0,
        "meta_classification_type": "U",
        "meta_norad_cat_id": 66550,
        "meta_element_set_no": 999,
        "meta_rev_at_epoch": 35,
        "meta_bstar": 0.0022608485,
        "meta_mean_motion_dot": 0.01807848,
        "meta_mean_motion_ddot": -2.55676e-07,
        "tle_line1": "1 66550U 25277B   25346.99983870  .01807848 -25568-6  22608-2 0  9997",
        "tle_line2": "2 66550  14.3833 269.7494 7016496 189.2871 143.2042  2.69999213   350"
      },
      "geometry": {
        "type": "Point",
        "coordinates": [
          -178.39661253570839,
          -14.390752252459636
        ]
      }
    },
    {
      "type": "Feature",
      "properties": {
        "norad_id": 66551,
        "name": "USA 568",
        "group": "last-30-days",
        "lat": 37.13837859825795,
        "lon": -36.58109713917381,
        "alt_km": 25.578783442882923,
        "timestamp": "2025-12-14T16:47:39.436626+00:00",
        "meta_object_name": "USA 568",
        "meta_object_id": "2024-134K",
        "meta_epoch": "2025-12-02T16:00:03.000096",
        "meta_mean_motion": 15.87051116,
        "meta_eccentricity": 7.17e-05,
        "meta_inclination": 53.1571,
        "meta_ra_of_asc_node": 236.7807,
        "meta_arg_of_pericenter": 110.7411,
        "meta_mean_anomaly": 313.9012,
        "meta_ephemeris_type": 0,
        "meta_classification_type": "U",
        "meta_norad_cat_id": 66551,
        "meta_element_set_no": 999,
        "meta_rev_at_epoch": 262,
        "meta_bstar": -0.0074303,
        "meta_mean_motion_dot": -0.01709685,
        "meta_mean_motion_ddot": 0,
        "tle_line1": "1 66551U 24134K   25336.66670139 -.01709685  00000+0 -74303-2 0  9990",
        "tle_line2": "2 66551  53.1571 236.7807 0000717 110.7411 313.9012 15.87051116  2624"
      },
      "geometry": {
        "type": "Point",
        "coordinates": [
          -36.58109713917381,
          37.13837859825795
        ]
      }
    },
    {
      "type": "Feature",
      "properties": {
        "norad_id": 66554,
        "name": "GLOBAL-33",
        "group": "last-30-days",
        "lat": 41.314428008495234,
        "lon": 123.16932453632492,
        "alt_km": 461.0403903222532,
        "timestamp": "2025-12-14T16:47:39.436636+00:00",
        "meta_object_name": "GLOBAL-33",
        "meta_object_id": "2025-267A",
        "meta_epoch": "2025-12-13T21:39:48.312864",
        "meta_mean_motion": 15.31571977,
        "meta_eccentricity": 0.00049277,
        "meta_inclination": 42.0179,
        "meta_ra_of_asc_node": 50.2807,
        "meta_arg_of_pericenter": 73.8701,
        "meta_mean_anomaly": 286.2679,
        "meta_ephemeris_type": 0,
        "meta_classification_type": "U",
        "meta_norad_cat_id": 66554,
        "meta_element_set_no": 999,
        "meta_rev_at_epoch": 358,
        "meta_bstar": 0.00027437928,
        "meta_mean_motion_dot": 8.305e-05,
        "meta_mean_motion_ddot": 0,
        "tle_line1": "1 66554U 25267A   25347.90264251  .00008305  00000+0  27438-3 0  9990",
        "tle_line2": "2 66554  42.0179  50.2807 0004927  73.8701 286.2679 15.31571977  3583"
      },
      "geometry": {
        "type": "Point",
        "coordinates": [
          123.16932453632492,
          41.314428008495234
        ]
      }
    }
  ]
}